0 DMSP 5D-2 F11 DEB
1 28326U 91082AP  13282.77239069  .00002970  00000-0  16260-2 0  1256
2 28326 098.9413 268.6949 0073783 010.0917 350.1715 14.11300080484463
0 DMSP 5D-2 F11 DEB
1 28326U 91082AP  13284.19029576  .00003522  00000-0  19234-2 0  1263
2 28326 098.9412 270.1074 0073698 006.1358 354.0698 14.11307766484662
0 DMSP 5D-2 F11 DEB
1 28326U 91082AP  13286.17534924  .00002864  00000-0  15684-2 0  1275
2 28326 098.9409 272.0848 0073589 000.6560 359.4695 14.11320649484943
0 DMSP 5D-2 F11 DEB
1 28326U 91082AP  13287.80591563  .00003634  00000-0  19834-2 0  1286
2 28326 098.9408 273.7087 0073503 356.1366 003.9229 14.11330735485171
0 DMSP 5D-2 F11 DEB
1 28326U 91082AP  13289.15289481  .00003824  00000-0  20853-2 0  1294
2 28326 098.9408 275.0503 0073378 352.3603 007.6444 14.11340556485364
0 DMSP 5D-2 F11 DEB
1 28326U 91082AP  13290.42897321  .00003621  00000-0  19761-2 0  1307
2 28326 098.9411 276.3213 0073271 348.7669 011.1863 14.11348747485548
0 DMSP 5D-2 F11 DEB
1 28326U 91082AP  13291.77593555  .00003763  00000-0  20521-2 0  1312
2 28326 098.9411 277.6627 0073236 344.9721 014.9274 14.11355680485731
0 DMSP 5D-2 F11 DEB
1 28326U 91082AP  13293.19378290  .00003896  00000-0  21235-2 0  1328
2 28326 098.9417 279.0748 0073125 340.9771 018.8671 14.11364966485938
0 DMSP 5D-2 F11 DEB
1 28326U 91082AP  13294.75340425  .00004732  00000-0  25734-2 0  1339
2 28326 098.9424 280.6283 0073031 336.6319 023.1538 14.11376210486155
0 DMSP 5D-2 F11 DEB
1 28326U 91082AP  13295.81677565  .00004426  00000-0  24084-2 0  1343
2 28326 098.9428 281.6875 0072960 333.6750 026.0720 14.11384841486304
